[
    {
        "Altitude(m)": 558749.658877528,
        "Argument of Periapsis(deg)": 0.019868973332140504,
        "Eccentricity": 0.0,
        "Inclination(deg)": 53.0,
        "Latitude(deg)": 48.12835606789982,
        "Longitude(deg)": -170.6511734387496,
        "Mean Anomaly(deg)": 68.45667860273274,
        "RAAN(deg)": 234.97043010558403,
        "Satellite Name": "Starlink Shell 1 1036",
        "Satellite Number": 1036,
        "Semi-Major Axis(m)": 6931778.249405717,
        "Time(s)": 570
    },
    {
        "Altitude(m)": 558811.9220540312,
        "Argument of Periapsis(deg)": 0.02021755181165174,
        "Eccentricity": 0.0,
        "Inclination(deg)": 53.0,
        "Latitude(deg)": 48.400191914618865,
        "Longitude(deg)": -169.84589481730808,
        "Mean Anomaly(deg)": 69.08350980628947,
        "RAAN(deg)": 234.96991133550654,
        "Satellite Name": "Starlink Shell 1 1036",
        "Satellite Number": 1036,
        "Semi-Major Axis(m)": 6931778.249405717,
        "Time(s)": 580
    },
    {
        "Altitude(m)": 558872.7746867382,
        "Argument of Periapsis(deg)": 0.020566130291162974,
        "Eccentricity": 0.0,
        "Inclination(deg)": 53.0,
        "Latitude(deg)": 48.665722494763,
        "Longitude(deg)": -169.03166053641806,
        "Mean Anomaly(deg)": 69.71034100984622,
        "RAAN(deg)": 234.96939256542913,
        "Satellite Name": "Starlink Shell 1 1036",
        "Satellite Number": 1036,
        "Semi-Major Axis(m)": 6931778.249405717,
        "Time(s)": 590
    },
    {
        "Altitude(m)": 558932.1795247063,
        "Argument of Periapsis(deg)": 0.020914708770674213,
        "Eccentricity": 0.0,
        "Inclination(deg)": 53.0,
        "Latitude(deg)": 48.92482318386856,
        "Longitude(deg)": -168.20850796194765,
        "Mean Anomaly(deg)": 70.33717221340287,
        "RAAN(deg)": 234.96887379535164,
        "Satellite Name": "Starlink Shell 1 1036",
        "Satellite Number": 1036,
        "Semi-Major Axis(m)": 6931778.249405717,
        "Time(s)": 600
    },
    {
        "Altitude(m)": 558990.1002535184,
        "Argument of Periapsis(deg)": 0.021263287250185448,
        "Eccentricity": 0.0,
        "Inclination(deg)": 53.0,
        "Latitude(deg)": 49.17736929224574,
        "Longitude(deg)": -167.37648718271373,
        "Mean Anomaly(deg)": 70.96400341695961,
        "RAAN(deg)": 234.96835502527412,
        "Satellite Name": "Starlink Shell 1 1036",
        "Satellite Number": 1036,
        "Semi-Major Axis(m)": 6931778.249405717,
        "Time(s)": 610
    },
    {
        "Altitude(m)": 559046.5015131994,
        "Argument of Periapsis(deg)": 0.021611865729696686,
        "Eccentricity": 0.0,
        "Inclination(deg)": 53.0,
        "Latitude(deg)": 49.42323625984773,
        "Longitude(deg)": -166.53566102272728,
        "Mean Anomaly(deg)": 71.59083462051632,
        "RAAN(deg)": 234.96783625519672,
        "Satellite Name": "Starlink Shell 1 1036",
        "Satellite Number": 1036,
        "Semi-Major Axis(m)": 6931778.249405717,
        "Time(s)": 620
    },
    {
        "Altitude(m)": 559101.3489156307,
        "Argument of Periapsis(deg)": 0.02196044420920792,
        "Eccentricity": 0.0,
        "Inclination(deg)": 53.0,
        "Latitude(deg)": 49.6622998621662,
        "Longitude(deg)": -165.68610671348665,
        "Mean Anomaly(deg)": 72.21766582407305,
        "RAAN(deg)": 234.96731748511922,
        "Satellite Name": "Starlink Shell 1 1036",
        "Satellite Number": 1036,
        "Semi-Major Axis(m)": 6931778.249405717,
        "Time(s)": 630
    },
    {
        "Altitude(m)": 559154.609061474,
        "Argument of Periapsis(deg)": 0.02230902268871916,
        "Eccentricity": 0.0,
        "Inclination(deg)": 53.0,
        "Latitude(deg)": 49.894436426892156,
        "Longitude(deg)": -164.82791501918322,
        "Mean Anomaly(deg)": 72.8444970276298,
        "RAAN(deg)": 234.96679871504173,
        "Satellite Name": "Starlink Shell 1 1036",
        "Satellite Number": 1036,
        "Semi-Major Axis(m)": 6931778.249405717,
        "Time(s)": 640
    },
    {
        "Altitude(m)": 559206.249556618,
        "Argument of Periapsis(deg)": 0.022657601168230398,
        "Eccentricity": 0.0,
        "Inclination(deg)": 53.0,
        "Latitude(deg)": 50.11952306099843,
        "Longitude(deg)": -163.96119185282654,
        "Mean Anomaly(deg)": 73.47132823118645,
        "RAAN(deg)": 234.96627994496427,
        "Satellite Name": "Starlink Shell 1 1036",
        "Satellite Number": 1036,
        "Semi-Major Axis(m)": 6931778.249405717,
        "Time(s)": 650
    },
    {
        "Altitude(m)": 559256.2390280915,
        "Argument of Periapsis(deg)": 0.023006179647741636,
        "Eccentricity": 0.0,
        "Inclination(deg)": 53.0,
        "Latitude(deg)": 50.33743788777786,
        "Longitude(deg)": -163.08605817580067,
        "Mean Anomaly(deg)": 74.0981594347432,
        "RAAN(deg)": 234.96576117488678,
        "Satellite Name": "Starlink Shell 1 1036",
        "Satellite Number": 1036,
        "Semi-Major Axis(m)": 6931778.249405717,
        "Time(s)": 660
    },
    {
        "Altitude(m)": 559304.5471394897,
        "Argument of Periapsis(deg)": 0.023354758127252868,
        "Eccentricity": 0.0,
        "Inclination(deg)": 53.0,
        "Latitude(deg)": 50.54806029326989,
        "Longitude(deg)": -162.20264985665452,
        "Mean Anomaly(deg)": 74.7249906382999,
        "RAAN(deg)": 234.96524240480932,
        "Satellite Name": "Starlink Shell 1 1036",
        "Satellite Number": 1036,
        "Semi-Major Axis(m)": 6931778.249405717,
        "Time(s)": 670
    },
    {
        "Altitude(m)": 559351.1446058335,
        "Argument of Periapsis(deg)": 0.023703336606764106,
        "Eccentricity": 0.0,
        "Inclination(deg)": 53.0,
        "Latitude(deg)": 50.751271181394635,
        "Longitude(deg)": -161.31111899676995,
        "Mean Anomaly(deg)": 75.35182184185663,
        "RAAN(deg)": 234.96472363473185,
        "Satellite Name": "Starlink Shell 1 1036",
        "Satellite Number": 1036,
        "Semi-Major Axis(m)": 6931778.249405717,
        "Time(s)": 680
    },
    {
        "Altitude(m)": 559396.0032079892,
        "Argument of Periapsis(deg)": 0.024051915086275345,
        "Eccentricity": 0.0,
        "Inclination(deg)": 53.0,
        "Latitude(deg)": 50.94695323698584,
        "Longitude(deg)": -160.41163369193765,
        "Mean Anomaly(deg)": 75.97865304541332,
        "RAAN(deg)": 234.96420486465436,
        "Satellite Name": "Starlink Shell 1 1036",
        "Satellite Number": 1036,
        "Semi-Major Axis(m)": 6931778.249405717,
        "Time(s)": 690
    },
    {
        "Altitude(m)": 559439.0958064554,
        "Argument of Periapsis(deg)": 0.024400493565786583,
        "Eccentricity": 0.0,
        "Inclination(deg)": 53.0,
        "Latitude(deg)": 51.13499119580408,
        "Longitude(deg)": -159.50437773755246,
        "Mean Anomaly(deg)": 76.60548424897003,
        "RAAN(deg)": 234.96368609457687,
        "Satellite Name": "Starlink Shell 1 1036",
        "Satellite Number": 1036,
        "Semi-Major Axis(m)": 6931778.249405717,
        "Time(s)": 700
    },
    {
        "Altitude(m)": 559480.3963546917,
        "Argument of Periapsis(deg)": 0.024749072045297815,
        "Eccentricity": 0.0,
        "Inclination(deg)": 53.0,
        "Latitude(deg)": 51.31527212049096,
        "Longitude(deg)": -158.58955178528177,
        "Mean Anomaly(deg)": 77.23231545252678,
        "RAAN(deg)": 234.96316732449947,
        "Satellite Name": "Starlink Shell 1 1036",
        "Satellite Number": 1036,
        "Semi-Major Axis(m)": 6931778.249405717,
        "Time(s)": 710
    },
    {
        "Altitude(m)": 559519.8799118613,
        "Argument of Periapsis(deg)": 0.025097650524809053,
        "Eccentricity": 0.0,
        "Inclination(deg)": 53.0,
        "Latitude(deg)": 51.48768568130033,
        "Longitude(deg)": -157.66737292064838,
        "Mean Anomaly(deg)": 77.85914665608347,
        "RAAN(deg)": 234.96264855442197,
        "Satellite Name": "Starlink Shell 1 1036",
        "Satellite Number": 1036,
        "Semi-Major Axis(m)": 6931778.249405717,
        "Time(s)": 720
    },
    {
        "Altitude(m)": 559557.5226550485,
        "Argument of Periapsis(deg)": 0.02544622900432029,
        "Eccentricity": 0.0,
        "Inclination(deg)": 53.0,
        "Latitude(deg)": 51.65212444033492,
        "Longitude(deg)": -156.73807416988492,
        "Mean Anomaly(deg)": 78.48597785964016,
        "RAAN(deg)": 234.96212978434446,
        "Satellite Name": "Starlink Shell 1 1036",
        "Satellite Number": 1036,
        "Semi-Major Axis(m)": 6931778.249405717,
        "Time(s)": 730
    },
    {
        "Altitude(m)": 559593.3018908995,
        "Argument of Periapsis(deg)": 0.02579480748383153,
        "Eccentricity": 0.0,
        "Inclination(deg)": 53.0,
        "Latitude(deg)": 51.80848413790924,
        "Longitude(deg)": -155.80190544478452,
        "Mean Anomaly(deg)": 79.1128090631969,
        "RAAN(deg)": 234.96161101426702,
        "Satellite Name": "Starlink Shell 1 1036",
        "Satellite Number": 1036,
        "Semi-Major Axis(m)": 6931778.249405717,
        "Time(s)": 740
    },
    {
        "Altitude(m)": 559627.1960667243,
        "Argument of Periapsis(deg)": 0.026143385963342765,
        "Eccentricity": 0.0,
        "Inclination(deg)": 53.0,
        "Latitude(deg)": 51.95666397954835,
        "Longitude(deg)": -154.85913289611574,
        "Mean Anomaly(deg)": 79.73964026675361,
        "RAAN(deg)": 234.96109224418956,
        "Satellite Name": "Starlink Shell 1 1036",
        "Satellite Number": 1036,
        "Semi-Major Axis(m)": 6931778.249405717,
        "Time(s)": 750
    }
]